INTELSAT 10 (IS-10)     
1 26766U 01019A   26025.49095716 -.00000206  00000+0  00000+0 0  9991
2 26766   8.7324  60.7059 0008426 245.4718 305.6733  0.99075380 44164
INTELSAT 902 (IS-902)   
1 26900U 01039A   26025.49095716 -.00000273  00000+0  00000+0 0  9997
2 26900   5.7572  73.5443 0004467 237.3446 300.5325  1.00270834 89269
INTELSAT 904 (IS-904)   
1 27380U 02007A   26025.49459719 -.00000216  00000+0  00000+0 0  9990
2 27380   6.5621  70.9120 0003678 281.1668 279.2681  1.00270836 50330
DIRECTV 5 (TEMPO 1)     
1 27426U 02023A   26025.55040288 -.00000046  00000+0  00000+0 0  9994
2 27426   4.5121  77.1169 0003454 236.0577 259.6941  1.00271447 86694
INTELSAT 905 (IS-905)   
1 27438U 02027A   26025.21086308  .00000104  00000+0  00000+0 0  9991
2 27438   6.3928  71.5379 0003056 238.5705 113.1260  1.00273411 49927
GALAXY 3C (G-3C)        
1 27445U 02030A   26025.55343623 -.00000141  00000+0  00000+0 0  9998
2 27445   3.3701  79.9927 0000800  86.6501  62.5965  1.00270968 45066
INTELSAT 906 (IS-906)   
1 27513U 02041A   26025.58498308  .00000023  00000+0  00000+0 0  9998
2 27513   5.4408  74.6988 0005008 216.8079 108.1034  1.00272148 85598
GALAXY 13 (HORIZONS-1)  
1 27954U 03044A   26025.54243745  .00000146  00000+0  00000+0 0  9996
2 27954   1.0499  85.9021 0002169 224.3981 219.7956  1.00273707 45144
INTELSAT 10-02          
1 28358U 04022A   26025.57189634  .00000003  00000+0  00000+0 0  9993
2 28358   0.0193  77.1646 0001175 237.6840  14.9447  1.00269983 79122
XM-3 (RHYTHM)           
1 28626U 05008A   26025.55360956  .00000012  00000+0  00000+0 0  9992
2 28626   0.2861  83.5397 0003752 279.5334 227.2818  0.98949788 41184
DIRECTV 8               
1 28659U 05019A   26025.54858287  .00000015  00000+0  00000+0 0  9991
2 28659   0.0187  85.4059 0003165 226.6146 251.2643  1.00271052 75644
GALAXY 28 (G-28)        
1 28702U 05022A   26025.42041009 -.00000242  00000+0  00000+0 0  9990
2 28702   2.9314  80.7585 0002212 206.3966 302.6935  1.00588618 50541
GALAXY 16 (G-16)        
1 29236U 06023A   26025.55256956 -.00000113  00000+0  00000+0 0  9995
2 29236   0.0299 168.7484 0002753 137.4698 278.5427  1.00271265 71543
DIRECTV 9S              
1 29494U 06043A   26025.55213623 -.00000100  00000+0  00000+0 0  9993
2 29494   2.0513  82.7118 0003098 224.2972 275.3983  1.00270985 49952
GALAXY 17 (G-17)        
1 31307U 07016B   26025.55534291 -.00000194  00000+0  00000+0 0  9990
2 31307   2.6089  81.7562 0005000 201.4934 316.5313  1.00270328 68377
DIRECTV 10              
1 31862U 07032A   26025.55187621 -.00000089  00000+0  00000+0 0  9998
2 31862   0.0370 116.7154 0000635 149.2254 314.7944  1.00271071 44164
INTELSAT 11 (IS-11)     
1 32253U 07044B   26025.57874304  .00000022  00000+0  00000+0 0  9995
2 32253   3.1924  80.4587 0007594 186.4592  99.1600  0.99049064 67030
HORIZONS-2              
1 32388U 07063B   26025.55759625 -.00000241  00000+0  00000+0 0  9995
2 32388   2.2330  82.4557 0004012 213.0808 316.2676  1.00271370 66381
DIRECTV 11              
1 32729U 08013A   26025.55256956 -.00000111  00000+0  00000+0 0  9995
2 32729   0.0073 259.8827 0000115  95.0866 229.6113  1.00270366 44161
GALAXY 18 (G-18)        
1 32951U 08024A   26025.47648374  .00000039  00000+0  00000+0 0  9992
2 32951   0.0169  72.7653 0003195 238.5300 221.9937  1.00271639 44423
INTELSAT 25 (IS-25)     
1 33153U 08034A   26025.49451052 -.00000212  00000+0  00000+0 0  9999
2 33153   2.3384  82.1333 0004747 213.8054 335.3679  1.00269381 64266
GALAXY 19 (G-19)        
1 33376U 08045A   26025.55300289 -.00000125  00000+0  00000+0 0  9993
2 33376   0.0638 258.5219 0002950  44.2349 284.1679  1.00273055 63475
FM-5                    
1 35493U 09034A   26025.55508291 -.00000186  00000+0  00000+0 0  9994
2 35493   0.0412 259.2577 0001114 296.9979  42.2703  1.00269997 45211
INTELSAT 14 (IS-14)     
1 36097U 09064A   26025.42067009 -.00000259  00000+0  00000+0 0  9992
2 36097   0.0176  72.3111 0002529 229.1278 289.7279  1.00271951 59177
INTELSAT 15 (IS-15)     
1 36106U 09067A   26025.60183772 -.00000171  00000+0  00000+0 0  9995
2 36106   0.0167  60.8080 0002661 262.2619 103.6335  1.00270812 39797
DIRECTV 12              
1 36131U 09075A   26025.55187621 -.00000089  00000+0  00000+0 0  9991
2 36131   0.0011 222.3834 0000069 143.1240 215.3016  1.00266123 45123
INTELSAT 16 (IS-16)     
1 36397U 10006A   26025.55707625 -.00000230  00000+0  00000+0 0  9991
2 36397   0.0149 357.6081 0002179 302.4211 309.1719  1.00270713 58224
XM-5                    
1 37185U 10053A   26025.54936287 -.00000009  00000+0  00000+0 0  9990
2 37185   0.0673 264.7785 0002950 260.7839  41.8543  1.00269284 56055
INTELSAT 17 (IS-17)     
1 37238U 10065B   26025.58524308  .00000012  00000+0  00000+0 0  9996
2 37238   0.0110  99.5731 0002416 209.3702  92.6190  1.00272068 51815
INTELSAT 28 (IS-28)     
1 37392U 11016A   26025.42327010 -.00000212  00000+0  00000+0 0  9991
2 37392   1.4356  84.5397 0004127 216.1041 304.7431  1.00270228 51853
INTELSAT 18 (IS-18)     
1 37834U 11056A   26025.53654409  .00000066  00000+0  00000+0 0  9999
2 37834   0.0338 262.2916 0001941  41.4628 194.2396  1.00268874 52387
INTELSAT 22 (IS-22)     
1 38098U 12011A   26025.58645642 -.00000044  00000+0  00000+0 0  9995
2 38098   0.0112  38.9919 0001645 272.4809  96.6227  1.00272279  5750
INTELSAT 19 (IS-19)     
1 38356U 12030A   26025.56711402 -.00000043  00000+0  00000+0 0  9998
2 38356   0.0171  76.0895 0003201 235.1093 183.8241  1.00271373 49026
INTELSAT 20 (IS-20)     
1 38740U 12043A   26025.58576308 -.00000009  00000+0  00000+0 0  9997
2 38740   0.0209  91.5695 0001275  59.9054 252.7545  1.00266410 49314
INTELSAT 21 (IS-21)     
1 38749U 12045A   26025.56071627 -.00000271  00000+0  00000+0 0  9991
2 38749   0.0183  72.3757 0001897 233.1596 323.1776  1.00271186 49097
INTELSAT 23 (IS-23)     
1 38867U 12057A   26025.49035050 -.00000271  00000+0  00000+0 0  9997
2 38867   0.0407 244.5165 0001762  50.3900 313.3854  1.00272279 48521
FM-6                    
1 39360U 13058A   26025.54918954 -.00000002  00000+0  00000+0 0  9999
2 39360   0.0265  93.5171 0003101  83.3036  29.5405  1.00270198 44641
INTELSAT 30 (IS-30)     
1 40271U 14062A   26025.55334956 -.00000136  00000+0  00000+0 0  9991
2 40271   0.0118  51.8225 0001229  67.0852 110.0877  1.00268939  5367
DIRECTV 14              
1 40333U 14078B   26025.55256956 -.00000111  00000+0  00000+0 0  9993
2 40333   0.0189  66.3623 0000460 132.2881  25.8791  1.00269614 40616
DIRECTV 15              
1 40663U 15026A   26025.55178955 -.00000088  00000+0  00000+0 0  9998
2 40663   0.0137  78.8153 0000711 106.1612  35.6262  1.00270219 39031
SKY MEXICO-1            
1 40664U 15026B   26025.55655625 -.00000220  00000+0  00000+0 0  9991
2 40664   0.0414 259.3929 0002048  47.3291 299.7376  1.00270146 39028
INTELSAT 34 (IS-34)     
1 40874U 15039A   26025.21364340 -.00000271  00000+0  00000+0 0  9998
2 40874   0.0256 298.0964 0000913 278.2618 289.5628  1.00275671 38193
INTELSAT 31 (IS-31)     
1 41581U 16035A   26024.33378038 -.00000136  00000+0  00000+0 0  9992
2 41581   0.0121 267.8643 0002074 312.4428 288.4381  1.00271227 35248
INTELSAT 36 (IS-36)     
1 41747U 16053A   26025.15780856 -.00000009  00000+0  00000+0 0  9991
2 41747   0.0087  32.0867 0001299 278.2936 299.3887  1.00269915 34516
INTELSAT 32E (IS-32E)   
1 41945U 17007B   26025.21364340 -.00000254  00000+0  00000+0 0  9996
2 41945   0.0158  84.9137 0000517 250.0969 183.2381  1.00274802 32796
INTELSAT 35E (IS-35E)   
1 42818U 17041A   26025.42275010 -.00000224  00000+0  00000+0 0  9999
2 42818   0.0168  82.5955 0002128 221.0183 298.8027  1.00272063 31386
INTELSAT 37E (IS-37E)   
1 42950U 17059A   26025.42595679 -.00000126  00000+0  00000+0 0  9992
2 42950   0.0179  77.7519 0002834 213.4052 328.9157  1.00271908 30634
AZERSPACE 2 (IS-38)     
1 43632U 18074A   26025.58116972  .00000151  00000+0  00000+0 0  9997
2 43632   0.0101  43.8487 0001484 254.1290  81.2309  1.00269956 27017
HORIZONS-3E             
1 43633U 18074B   26025.23864359 -.00000017  00000+0  00000+0 0  9991
2 43633   0.0415 235.7335 0000355  91.2150  52.4840  1.00269769 26900
AT&T T-16               
1 44333U 19034A   26025.55222289 -.00000100  00000+0  00000+0 0  9994
2 44333   0.0192  83.3151 0001340  90.0656  49.4008  1.00265472 24206
INTELSAT 39 (IS-39)     
1 44476U 19049B   26025.63318271  .00000000  00000+0  00000+0 0  9992
2 44476   0.0250  70.6198 0000781  92.0108 252.1910  1.00270336 23693
GALAXY 30 (G-30)        
1 46114U 20056C   26025.54720415  .00000051  00000+0  00000+0 0  9996
2 46114   0.0193  70.2215 0002231 238.8881 247.7123  1.00271181 19865
GALAXY 33 (G-33)        
1 54026U 22128A   26025.54581748  .00000093  00000+0  00000+0 0  9999
2 54026   0.0151  49.6012 0001902 255.3219 243.4054  1.00271794 12317
GALAXY 34 (G-34)        
1 54027U 22128B   26025.33270291  .00000073  00000+0  00000+0 0  9993
2 54027   0.0193  63.4582 0001360 246.2193 165.6974  1.00270961 12487
GALAXY 31 (G-31)        
1 54243U 22153A   26025.47691707  .00000027  00000+0  00000+0 0  9994
2 54243   0.0125 138.5923 0001615 172.4277 224.4366  1.00271225  5701
GALAXY 32 (G-32)        
1 54244U 22153B   26024.84096826 -.00000159  00000+0  00000+0 0  9993
2 54244   0.0114  60.3592 0002631 270.0161   5.5176  1.00271530 11703
GALAXY 35 (G-35)        
1 54741U 22170A   26025.55378289 -.00000148  00000+0  00000+0 0  9997
2 54741   0.0272 203.5252 0002259 100.7876 286.7793  1.00269921 11464
GALAXY 36 (G-36)        
1 54742U 22170B   26025.26926253 -.00000171  00000+0  00000+0 0  9992
2 54742   0.0226 111.1291 0001055 258.0056 123.3697  1.00271531 11347
GALAXY 37 (G-37)        
1 57493U 23112A   26023.90640909  .00000063  00000+0  00000+0 0  9994
2 57493   0.0124  72.0897 0002101 234.7864  15.6402  1.00271877  9097
